NORAD_CAT_ID,OBJECT_NAME,OBJECT_TYPE,EPOCH,MEAN_MOTION,ECCENTRICITY,INCLINATION,RA_OF_ASC_NODE,ARG_OF_PERICENTER,MEAN_ANOMALY,BSTAR,MEAN_MOTION_DOT,MEAN_MOTION_DDOT,TLE_LINE0,TLE_LINE1,TLE_LINE2,SEMIMAJOR_AXIS,PERIOD,APOGEE,PERIGEE,DECAYED
49453.0,STARLINK-3129,PAYLOAD,2024-07-27 09:58:12,15.08835123,0.0001681,53.2173,349.0519,95.718,264.4004,2.1213e-05,5e-07,0.0,0 STARLINK-3129,1 49453U 21104AX  24209.41542250  .00000050  00000-0  21213-4 0  9991,2 49453  53.2173 349.0519 0001681  95.7180 264.4004 15.08835123150737,6917.895,95.438,540.923,538.597,0.0
49453.0,STARLINK-3129,PAYLOAD,2024-07-27 17:55:08,15.08833425,0.000163,53.2179,347.5645,95.0196,265.0982,2.7228e-06,-2.45e-06,0.0,0 STARLINK-3129,1 49453U 21104AX  24209.74662516 -.00000245  00000-0  27228-5 0  9995,2 49453  53.2179 347.5645 0001630  95.0196 265.0982 15.08833425149711,6917.9,95.438,540.893,538.638,0.0
49453.0,STARLINK-3129,PAYLOAD,2024-07-28 12:59:45,15.08847928,0.0001659,53.2196,343.9953,98.1667,261.9513,4.2771e-05,3.93e-06,0.0,0 STARLINK-3129,1 49453U 21104AX  24210.54149590  .00000393  00000-0  42771-4 0  9999,2 49453  53.2196 343.9953 0001659  98.1667 261.9513 15.08847928150901,6917.856,95.437,540.869,538.573,0.0
49453.0,STARLINK-3129,PAYLOAD,2024-07-28 17:45:53,15.08859221,0.0001304,53.2176,343.1048,90.1943,269.9198,0.00024104,3.552e-05,0.0,0 STARLINK-3129,1 49453U 21104AX  24210.74020689  .00003552  00000-0  24104-3 0  9997,2 49453  53.2176 343.1048 0001304  90.1943 269.9198 15.08859221150931,6917.822,95.436,540.589,538.785,0.0
49453.0,STARLINK-3129,PAYLOAD,2024-07-29 01:42:50,15.08838066,0.0001952,53.2193,341.6158,83.9754,276.146,0.00012265,1.664e-05,0.0,0 STARLINK-3129,1 49453U 21104AX  24211.07142058  .00001664  00000-0  12265-3 0  9996,2 49453  53.2193 341.6158 0001952  83.9754 276.1460 15.08838066150985,6917.886,95.438,541.102,538.401,0.0
49453.0,STARLINK-3129,PAYLOAD,2024-07-29 17:36:41,15.08843243,0.0001742,53.2193,338.6425,79.5727,280.5462,0.00013595,1.876e-05,0.0,0 STARLINK-3129,1 49453U 21104AX  24211.73381781  .00001876  00000-0  13595-3 0  9999,2 49453  53.2193 338.6425 0001742  79.5727 280.5462 15.08843243150014,6917.87,95.437,540.941,538.53,0.0
49453.0,STARLINK-3129,PAYLOAD,2024-07-30 01:33:37,15.08838694,6.89e-05,53.2197,337.1558,82.1246,277.9824,1.3131e-05,-7.9e-07,0.0,0 STARLINK-3129,1 49453U 21104AX  24212.06501582 -.00000079  00000-0  13131-4 0  9991,2 49453  53.2197 337.1558 0000689  82.1246 277.9824 15.08838694150065,6917.884,95.438,540.226,539.273,0.0
49453.0,STARLINK-3129,PAYLOAD,2024-07-30 17:27:27,15.08850827,3.64e-05,53.2191,334.1844,248.6726,111.4227,-0.00013418,-2.423e-05,0.0,0 STARLINK-3129,1 49453U 21104AX  24212.72740541 -.00002423  00000-0 -13418-3 0  9997,2 49453  53.2191 334.1844 0000364 248.6726 111.4227 15.08850827151237,6917.847,95.437,539.964,539.46,0.0
49453.0,STARLINK-3129,PAYLOAD,2024-07-31 12:32:07,15.08827053,0.0001111,53.215,330.6166,98.4552,261.6566,-4.5968e-05,-1.019e-05,0.0,0 STARLINK-3129,1 49453U 21104AX  24213.52230774 -.00001019  00000-0 -45968-4 0  9994,2 49453  53.2150 330.6166 0001111  98.4552 261.6566 15.08827053151351,6917.92,95.438,540.554,539.016,0.0
49453.0,STARLINK-3129,PAYLOAD,2024-07-31 14:07:30,15.08830311,5.43e-05,53.2156,330.3162,128.2777,231.8264,-1.1095e-06,-3.05e-06,0.0,0 STARLINK-3129,1 49453U 21104AX  24213.58854688 -.00000305  00000-0 -11095-5 0  9998,2 49453  53.2156 330.3162 0000543 128.2777 231.8264 15.08830311150296,6917.91,95.438,540.151,539.399,0.0
49453.0,STARLINK-3129,PAYLOAD,2024-08-01 01:15:12,15.08838643,0.0001302,53.2193,328.2339,105.7212,254.3924,0.00012011,1.624e-05,0.0,0 STARLINK-3129,1 49453U 21104AX  24214.05222393  .00001624  00000-0  12011-3 0  9993,2 49453  53.2193 328.2339 0001302 105.7212 254.3924 15.08838643151433,6917.885,95.438,540.65,538.849,0.0
49453.0,STARLINK-3129,PAYLOAD,2024-08-01 13:58:16,15.08854221,0.0001262,53.2171,325.8569,97.2529,262.8607,0.00033623,5.069e-05,0.0,0 STARLINK-3129,1 49453U 21104AX  24214.58213723  .00005069  00000-0  33623-3 0  9997,2 49453  53.2171 325.8569 0001262  97.2529 262.8607 15.08854221150440,6917.837,95.437,540.575,538.829,0.0
49453.0,STARLINK-3129,PAYLOAD,2024-08-01 17:09:02,15.08856278,0.0001631,53.2155,325.2601,106.467,253.6501,0.00048393,7.426e-05,0.0,0 STARLINK-3129,1 49453U 21104AX  24214.71461553  .00007426  00000-0  48393-3 0  9997,2 49453  53.2155 325.2601 0001631 106.4670 253.6501 15.08856278151539,6917.831,95.437,540.824,538.567,0.0
49453.0,STARLINK-3129,PAYLOAD,2024-08-02 01:05:59,15.0883637,0.0002417,53.2184,323.7738,104.3019,255.8242,0.00016821,2.39e-05,0.0,0 STARLINK-3129,1 49453U 21104AX  24215.04582836  .00002390  00000-0  16821-3 0  9998,2 49453  53.2184 323.7738 0002417 104.3019 255.8242 15.08836370151584,6917.891,95.438,541.429,538.084,0.0
49453.0,STARLINK-3129,PAYLOAD,2024-08-02 13:49:05,15.08829484,0.0001342,53.218,321.3996,106.5171,253.5969,7.6551e-05,9.3e-06,0.0,0 STARLINK-3129,1 49453U 21104AX  24215.57575241  .00000930  00000-0  76551-4 0  9993,2 49453  53.2180 321.3996 0001342 106.5171 253.5969 15.08829484150598,6917.913,95.438,540.706,538.849,0.0
49453.0,STARLINK-3129,PAYLOAD,2024-08-03 13:39:51,15.08853994,0.0001421,53.2183,316.9423,98.0024,262.113,0.00080184,0.00012501,0.0,0 STARLINK-3129,1 49453U 21104AX  24216.56934550  .00012501  00000-0  80184-3 0  9998,2 49453  53.2183 316.9423 0001421  98.0024 262.1130 15.08853994151811,6917.838,95.437,540.686,538.72,0.0
49453.0,STARLINK-3129,PAYLOAD,2024-08-03 16:50:37,15.08866417,0.0001336,53.2172,316.3453,96.9843,263.1301,0.0012296,0.00019349,0.0,0 STARLINK-3129,1 49453U 21104AX  24216.70182260  .00019349  00000-0  12296-2 0  9992,2 49453  53.2172 316.3453 0001336  96.9843 263.1301 15.08866417150765,6917.8,95.436,540.589,538.74,0.0
49453.0,STARLINK-3129,PAYLOAD,2024-08-03 23:12:10,15.08849901,0.0001492,53.2177,315.1535,93.5381,266.5782,0.00042096,6.42e-05,0.0,0 STARLINK-3129,1 49453U 21104AX  24216.96678533  .00006420  00000-0  42096-3 0  9991,2 49453  53.2177 315.1535 0001492  93.5381 266.5782 15.08849901151873,6917.85,95.437,540.747,538.683,0.0
49453.0,STARLINK-3129,PAYLOAD,2024-08-04 13:30:37,15.08870828,0.0001389,53.218,312.4809,104.8724,255.2422,0.0011514,0.00018099,0.0,0 STARLINK-3129,1 49453U 21104AX  24217.56293871  .00018099  00000-0  11514-2 0  9991,2 49453  53.2180 312.4809 0001389 104.8724 255.2422 15.08870828150892,6917.786,95.436,540.612,538.69,0.0
49453.0,STARLINK-3129,PAYLOAD,2024-08-04 16:41:24,15.08876856,0.0001414,53.218,311.8856,102.1147,258.0003,0.0019514,0.00030937,0.0,0 STARLINK-3129,1 49453U 21104AX  24217.69541670  .00030937  00000-0  19514-2 0  9991,2 49453  53.2180 311.8856 0001414 102.1147 258.0003 15.08876856151980,6917.768,95.435,540.611,538.655,0.0
49453.0,STARLINK-3129,PAYLOAD,2024-08-05 13:21:24,15.08858979,0.0001431,53.2171,308.0194,85.1906,274.9249,0.0014607,0.00023048,0.0,0 STARLINK-3129,1 49453U 21104AX  24218.55653462  .00023048  00000-0  14607-2 0  9993,2 49453  53.2171 308.0194 0001431  85.1906 274.9249 15.08858979152116,6917.822,95.436,540.677,538.697,0.0
49453.0,STARLINK-3129,PAYLOAD,2024-08-06 05:15:16,15.08836176,0.0002559,53.2178,305.0467,89.9263,270.2022,0.00084696,0.00013216,0.0,0 STARLINK-3129,1 49453U 21104AX  24219.21894497  .00013216  00000-0  84696-3 0  9994,2 49453  53.2178 305.0467 0002559  89.9263 270.2022 15.08836176152217,6917.892,95.438,541.527,537.987,0.0
49453.0,STARLINK-3129,PAYLOAD,2024-08-06 11:36:49,15.08822195,0.0001389,53.2165,303.8558,96.8367,263.2783,0.0014089,0.00022195,0.0,0 STARLINK-3129,1 49453U 21104AX  24219.48390868  .00022195  00000-0  14089-2 0  9990,2 49453  53.2165 303.8558 0001389  96.8367 263.2783 15.08822195152258,6917.935,95.439,540.761,538.839,0.0
49453.0,STARLINK-3129,PAYLOAD,2024-08-06 13:12:12,15.08823273,0.0001363,53.2164,303.5584,97.0244,263.0903,0.0017723,0.00028018,0.0,0 STARLINK-3129,1 49453U 21104AX  24219.55015013  .00028018  00000-0  17723-2 0  9992,2 49453  53.2164 303.5584 0001363  97.0244 263.0903 15.08823273151194,6917.932,95.439,540.739,538.854,0.0
49453.0,STARLINK-3129,PAYLOAD,2024-08-07 11:27:36,15.08862448,0.0001475,53.216,299.3961,91.7844,268.3317,0.0015611,0.0002466,0.0,0 STARLINK-3129,1 49453U 21104AX  24220.47750997  .00024660  00000-0  15611-2 0  9995,2 49453  53.2160 299.3961 0001475  91.7844 268.3317 15.08862448151332,6917.812,95.436,540.697,538.656,0.0
49453.0,STARLINK-3129,PAYLOAD,2024-08-08 11:18:23,15.08868616,0.0001382,53.2153,294.9348,92.0914,268.0237,0.0016863,0.00026672,0.0,0 STARLINK-3129,1 49453U 21104AX  24221.47110378  .00026672  00000-0  16863-2 0  9994,2 49453  53.2153 294.9348 0001382  92.0914 268.0237 15.08868616152559,6917.793,95.436,540.614,538.702,0.0
49453.0,STARLINK-3129,PAYLOAD,2024-08-08 22:26:05,15.08859418,0.0002153,53.2152,292.8596,41.0614,319.054,0.0010784,0.00016926,0.0,0 STARLINK-3129,1 49453U 21104AX  24221.93478470  .00016926  00000-0  10784-2 0  9992,2 49453  53.2152 292.8596 0002153  41.0614 319.0540 15.08859418151551,6917.821,95.436,541.175,538.197,0.0
49453.0,STARLINK-3129,PAYLOAD,2024-08-09 04:47:37,15.08845984,0.0001977,53.2158,291.662,92.2175,267.9044,0.00061106,9.452e-05,0.0,0 STARLINK-3129,1 49453U 21104AX  24222.19974502  .00009452  00000-0  61106-3 0  9999,2 49453  53.2158 291.6620 0001977  92.2175 267.9044 15.08845984152661,6917.862,95.437,541.095,538.359,0.0
49453.0,STARLINK-3129,PAYLOAD,2024-08-09 14:19:56,15.0884707,0.0001772,53.2155,289.8769,92.8704,267.2491,0.00039959,6.078e-05,0.0,0 STARLINK-3129,1 49453U 21104AX  24222.59718378  .00006078  00000-0  39959-3 0  9992,2 49453  53.2155 289.8769 0001772  92.8704 267.2491 15.08847070151653,6917.859,95.437,540.95,538.498,0.0
49453.0,STARLINK-3129,PAYLOAD,2024-08-10 10:59:58,15.08833887,0.000154,53.2167,286.0111,98.0161,262.1006,0.00026497,3.931e-05,0.0,0 STARLINK-3129,1 49453U 21104AX  24223.45831225  .00003931  00000-0  26497-3 0  9993,2 49453  53.2167 286.0111 0001540  98.0161 262.1006 15.08833887152854,6917.899,95.438,540.829,538.699,0.0
